[{"OBJECT_NAME":"STARLINK-3907","OBJECT_ID":"2022-049BC","EPOCH":"2026-03-09T07:51:23.747616","MEAN_MOTION":15.08831714,"ECCENTRICITY":0.00012271,"INCLINATION":53.2181,"RA_OF_ASC_NODE":50.5442,"ARG_OF_PERICENTER":84.7519,"MEAN_ANOMALY":275.3613,"EPHEMERIS_TYPE":0,"CLASSIFICATION_TYPE":"U","NORAD_CAT_ID":52501,"ELEMENT_SET_NO":999,"REV_AT_EPOCH":21234,"BSTAR":-2.6907583e-5,"MEAN_MOTION_DOT":-7.16e-6,"MEAN_MOTION_DDOT":0},{"OBJECT_NAME":"SEDNA-2","OBJECT_ID":"2025-009DQ","EPOCH":"2026-03-09T19:10:28.282944","MEAN_MOTION":15.10492622,"ECCENTRICITY":0.0010309,"INCLINATION":97.4615,"RA_OF_ASC_NODE":144.8075,"ARG_OF_PERICENTER":53.026,"MEAN_ANOMALY":307.1912,"EPHEMERIS_TYPE":0,"CLASSIFICATION_TYPE":"U","NORAD_CAT_ID":63153,"ELEMENT_SET_NO":999,"REV_AT_EPOCH":6311,"BSTAR":0.00049393403,"MEAN_MOTION_DOT":8.085e-5,"MEAN_MOTION_DDOT":0}]
